SPACEMOBILE-004         
1 61049U 24163E   26204.11393918  .00021285  00000+0  96977-3 0  9993
2 61049  52.9731 143.7101 0005257 250.7696 109.2730 15.20626990103231
CZ-8A R/B               
1 66004U 25231K   26204.10740667 -.00000036  00000+0  45972-4 0  9994
2 66004  50.0027 246.4961 0116546 350.4753   9.3954 14.30163980 40081
SZ-21 MODULE            
1 66515U 25246C   26203.97462332  .00060021  00000+0  31977-3 0  9999
2 66515  41.4724  83.9224 0009494 269.0433  90.9325 15.79442093 39394
SPACEMOBILE-006         
1 67232U 25309A   26204.17388663  .00002949  00000+0  15556-3 0  9993
2 67232  52.9956 166.7813 0009463 242.7348 117.2682 15.18691485 32068
SPACEMOBILE-008         
1 69589U 26139A   26204.14673180  .00000626  00000+0  52210-4 0  9999
2 69589  52.9952  99.3063 0005391  74.0305 286.1279 15.12815414  5426
SPACEMOBILE-009         
1 69590U 26139B   26204.08317279  .00001287  00000+0  89615-4 0  9991
2 69590  52.9945  99.6160 0005604  71.6496 288.5104 15.12715669  5415
SPACEMOBILE-010         
1 69591U 26139C   26204.08713962  .00001314  00000+0  91551-4 0  9994
2 69591  52.9951  99.6437 0005617  64.2078 295.9492 15.12552732  5421
