OBJECT_NAME,OBJECT_ID,EPOCH,MEAN_MOTION,ECCENTRICITY,INCLINATION,RA_OF_ASC_NODE,ARG_OF_PERICENTER,MEAN_ANOMALY,EPHEMERIS_TYPE,CLASSIFICATION_TYPE,NORAD_CAT_ID,ELEMENT_SET_NO,REV_AT_EPOCH,BSTAR,MEAN_MOTION_DOT,MEAN_MOTION_DDOT
SPACEMOBILE-004,2024-163E,2026-07-23T02:44:04.345152,15.20626990,.00052574,52.9731,143.7101,250.7696,109.2730,0,U,61049,999,10323,.96977201E-3,.21285E-3,0
CZ-8A R/B,2025-231K,2026-07-23T02:34:39.936288,14.30163980,.01165465,50.0027,246.4961,350.4753,9.3954,0,U,66004,999,4008,.45972366E-4,-.36E-6,0
SZ-21 MODULE,2025-246C,2026-07-22T23:23:27.454848,15.79442093,.00094943,41.4724,83.9224,269.0433,90.9325,0,U,66515,999,3939,.31977173E-3,.60021E-3,0
SPACEMOBILE-006,2025-309A,2026-07-23T04:10:23.804832,15.18691485,.00094634,52.9956,166.7813,242.7348,117.2682,0,U,67232,999,3206,.15555894E-3,.2949E-4,0
SPACEMOBILE-008,2026-139A,2026-07-23T03:31:17.627520,15.12815414,.00053911,52.9952,99.3063,74.0305,286.1279,0,U,69589,999,542,.52209587E-4,.626E-5,0
SPACEMOBILE-009,2026-139B,2026-07-23T01:59:46.129056,15.12715669,.00056049,52.9945,99.6160,71.6496,288.5104,0,U,69590,999,541,.89615233E-4,.1287E-4,0
SPACEMOBILE-010,2026-139C,2026-07-23T02:05:28.863168,15.12552732,.00056174,52.9951,99.6437,64.2078,295.9492,0,U,69591,999,542,.91550673E-4,.1314E-4,0
